LEMUR-2-STARLIGHT       
1 66783U 25276DY  26168.10327098  .00003901  00000+0  32554-3 0  9999
2 66783  97.5267 238.7459 0015169 128.2634 231.9956 14.99040378 30186
LEMUR-2-TARTIFLETTE     
1 66784U 25276DZ  26168.43549869  .00003672  00000+0  30655-3 0  9993
2 66784  97.5266 239.0726 0014080 133.6482 226.5911 14.99071713 30233
LEMUR-2-VUKASIN         
1 66785U 25276EA  26168.42894303  .00004408  00000+0  35548-3 0  9993
2 66785  97.5311 239.3626 0006002 121.7435 238.4374 15.00370036 30180
LEMUR-2-HOTSPUR-TOM     
1 66786U 25276EB  26168.16106833  .00004504  00000+0  37583-3 0  9997
2 66786  97.5263 238.7889 0015496 127.8317 232.4312 14.98961077 30121
LEMUR-2-MYRA            
1 66787U 25276EC  26168.72723131  .00006356  00000+0  51074-3 0  9994
2 66787  97.5215 239.5906 0016665 139.6728 220.5735 15.00252651 30294
LEMUR-2 FIKRETDENGIZ    
1 67363U 26004A   26168.60493639  .00003412  00000+0  37429-3 0  9997
2 67363  97.8015 167.1565 0010131 131.8110 228.3974 14.88327465 23344
TWILIGHT-1 OBJECT B     
1 67364U 26004B   26167.95697551  .00001552  00000+0  17619-3 0  9996
2 67364  97.8061 166.5337 0009933 125.0303 235.1847 14.87701698 23251
LEMUR-2-MARIO-SOUSA     
1 67365U 26004C   26168.58850047  .00003245  00000+0  35467-3 0  9990
2 67365  97.7986 167.1366 0009687 132.5346 227.6690 14.88515508 23359
LEMUR-2-SONNENBLUME     
1 67367U 26004E   26168.25078854  .00001925  00000+0  21389-3 0  9995
2 67367  97.7981 166.7886 0009178 134.9568 225.2395 14.88315759 23302
LEMUR-2-WOBLER          
1 67368U 26004F   26168.51315689  .00002571  00000+0  28227-3 0  9991
2 67368  97.8037 167.1694 0009621 124.7531 235.4593 14.88518299 23349
LEMUR-2-GRAM-E-SUE      
1 67370U 26004H   26168.50381439  .00001544  00000+0  17207-3 0  9994
2 67370  97.7970 167.0529 0008204 134.7964 225.3921 14.88472174 23344
LEMUR-2-KATIE           
1 67387U 26004AA  26167.95352862  .00003110  00000+0  32781-3 0  9993
2 67387  97.8033 166.9697 0004864  93.5324 266.6450 14.90048007 23271
LEMUR-2-HCS-BAZUS       
1 67388U 26004AB  26168.62411490  .00004404  00000+0  46147-3 0  9990
2 67388  97.8021 167.6127 0004448  89.4033 270.7694 14.90075071 23372
